ONEWEB-0045             
1 45151U 20008W   25255.21452934 -.00000328  00000+0 -96052-3 0  9994
2 45151  87.8790  76.4131 0001579  84.4899 275.6409 13.11416605273972
ONEWEB-0047             
1 45152U 20008X   25255.51326297 -.00000247  00000+0 -74343-3 0  9999
2 45152  87.8744  91.6448 0001697  82.2165 277.9155 13.10376954271832
ONEWEB-0048             
1 45153U 20008Y   25255.58460789 -.00000453  00000+0 -13345-2 0  9995
2 45153  87.8743  91.6556 0001660  86.3745 273.7573 13.10373817271452
ONEWEB-0049             
1 45154U 20008Z   25255.51074969 -.00000414  00000+0 -12213-2 0  9990
2 45154  87.8745  91.6621 0002141  89.8095 270.3278 13.10376049271667
ONEWEB-0051             
1 45155U 20008AA  25255.51799282 -.00000149  00000+0 -45604-3 0  9999
2 45155  87.8768  76.3915 0001637  90.9604 269.1712 13.11415922274697
ONEWEB-0052             
1 45156U 20008AB  25255.50577540 -.00000568  00000+0 -16644-2 0  9996
2 45156  87.8755  91.6142 0002262  86.8943 273.2443 13.10374162271571
ONEWEB-0053             
1 45157U 20008AC  25255.56469171 -.00000456  00000+0 -13413-2 0  9990
2 45157  87.8739  91.6562 0001635  74.4043 285.7265 13.10369679271552
ONEWEB-0054             
1 45158U 20008AD  25255.52321196  .00000287  00000+0  78477-3 0  9993
2 45158  87.8744  91.6375 0001737  87.8540 272.2786 13.10375808271666
